<?xml version="1.0" encoding="UTF-8"?>
<kml xmlns="http://www.opengis.net/kml/2.2">
<Document>

  <name>162W_boundary_line.kml</name>

  <Style id="redLine">
    <LineStyle>
      <color>ff0000ff</color>
      <width>3</width>
    </LineStyle>
  </Style>

  <Placemark>
    <name>162°W boundary</name>
    <styleUrl>#redLine</styleUrl>
    <LineString>
      <tessellate>1</tessellate>
      <coordinates>
        -162,55.48630278,0
        -162,58.64820556,0
      </coordinates>
    </LineString>
  </Placemark>

</Document>
</kml>
